{"type": "Feature", "properties": {}, "geometry": {"type": "MultiPolygon", "coordinates": [[[[-58.4856, -34.68725], [-58.48323, -34.68896], [-58.48211, -34.68979], [-58.48129, -34.69043], [-58.48119, -34.69051], [-58.48114, -34.69055], [-58.48106, -34.69061], [-58.48093, -34.69071], [-58.48078, -34.69081], [-58.48016, -34.69126], [-58.47978, -34.69153], [-58.47957, -34.69171], [-58.47943, -34.69181], [-58.4793, -34.69193], [-58.47882, -34.69228], [-58.47811, -34.69283], [-58.47763, -34.6932], [-58.47737, -34.6934], [-58.4771, -34.69358], [-58.47687, -34.69375], [-58.47623, -34.69423], [-58.47596, -34.69445], [-58.47591, -34.69448], [-58.47576, -34.69459], [-58.47391, -34.69599], [-58.47378, -34.69609], [-58.47375, -34.69612], [-58.47352, -34.69629], [-58.4734, -34.69638], [-58.472, -34.69744], [-58.4713, -34.69797], [-58.47108, -34.69815], [-58.47086, -34.6983], [-58.47065, -34.69848], [-58.47051, -34.69859], [-58.46997, -34.69898], [-58.46843, -34.70014], [-58.46841, -34.70015], [-58.46722, -34.70105], [-58.46711, -34.70114], [-58.46659, -34.70153], [-58.4665, -34.7016], [-58.46638, -34.70169], [-58.46591, -34.70204], [-58.46447, -34.70312], [-58.46434, -34.70323], [-58.46421, -34.70336], [-58.46409, -34.70351], [-58.46398, -34.70368], [-58.46393, -34.70382], [-58.46391, -34.70388], [-58.46391, -34.70395], [-58.46394, -34.70418], [-58.46394, -34.70422], [-58.46392, -34.70428], [-58.4639, -34.70432], [-58.46388, -34.70436], [-58.4638, -34.70444], [-58.4637, -34.70451], [-58.4625, -34.70526], [-58.46182, -34.70569], [-58.46163, -34.70582], [-58.46096, -34.70514], [-58.46096, -34.70514], [-58.46048, -34.70464], [-58.45784, -34.70159], [-58.45519, -34.6985], [-58.45332, -34.69631], [-58.45311, -34.69605], [-58.45164, -34.69423], [-58.45102, -34.69347], [-58.45075, -34.69312], [-58.45035, -34.69262], [-58.4469, -34.68861], [-58.44657, -34.68824], [-58.44391, -34.68505], [-58.44176, -34.68269], [-58.44097, -34.68198], [-58.44079, -34.68181], [-58.44035, -34.68135], [-58.44005, -34.68083], [-58.44002, -34.68064], [-58.43902, -34.67922], [-58.43736, -34.67733], [-58.436, -34.67566], [-58.43511, -34.67462], [-58.43403, -34.67344], [-58.43344, -34.67273], [-58.43272, -34.67187], [-58.43192, -34.67094], [-58.43184, -34.67086], [-58.4314, -34.67032], [-58.4312, -34.67007], [-58.43105, -34.6699], [-58.43093, -34.66974], [-58.43059, -34.66934], [-58.42964, -34.66817], [-58.42893, -34.66736], [-58.42802, -34.66627], [-58.42735, -34.66547], [-58.42653, -34.66454], [-58.42528, -34.66343], [-58.42433, -34.66276], [-58.4237, -34.6623], [-58.42216, -34.66147], [-58.4213, -34.66109], [-58.41969, -34.66058], [-58.41751, -34.6599], [-58.41668, -34.6596], [-58.41576, -34.65937], [-58.4149, -34.65908], [-58.41438, -34.65896], [-58.41358, -34.65882], [-58.41267, -34.65879], [-58.41148, -34.65893], [-58.41072, -34.65915], [-58.41065, -34.65918], [-58.40997, -34.65946], [-58.40934, -34.65971], [-58.40868, -34.66003], [-58.40747, -34.66024], [-58.40694, -34.66031], [-58.40652, -34.66029], [-58.40611, -34.66023], [-58.40512, -34.66001], [-58.4045, -34.65986], [-58.40386, -34.65979], [-58.40323, -34.65975], [-58.40296, -34.65977], [-58.40254, -34.6598], [-58.40247, -34.65981], [-58.40207, -34.6599], [-58.40126, -34.66025], [-58.4008, -34.66054], [-58.40063, -34.66065], [-58.40018, -34.66096], [-58.39983, -34.6611], [-58.39894, -34.6615], [-58.39744, -34.66218], [-58.39705, -34.66227], [-58.39654, -34.66226], [-58.39547, -34.66223], [-58.39431, -34.66254], [-58.39253, -34.66261], [-58.39164, -34.66233], [-58.39143, -34.66226], [-58.39051, -34.6614], [-58.38999, -34.66113], [-58.3895, -34.66098], [-58.38906, -34.66094], [-58.38834, -34.6608], [-58.38797, -34.66069], [-58.38776, -34.66059], [-58.38724, -34.66015], [-58.38678, -34.6596], [-58.38592, -34.65871], [-58.38522, -34.65819], [-58.38454, -34.65798], [-58.38393, -34.65787], [-58.38334, -34.65782], [-58.38142, -34.65783], [-58.37984, -34.65777], [-58.37947, -34.65773], [-58.37832, -34.65755], [-58.37821, -34.65753], [-58.37678, -34.6572], [-58.375, -34.65734], [-58.37446, -34.65732], [-58.37414, -34.65725], [-58.37386, -34.65715], [-58.37347, -34.65678], [-58.37261, -34.65597], [-58.37181, -34.65522], [-58.37058, -34.65455], [-58.36944, -34.65388], [-58.36927, -34.65365], [-58.3692, -34.65336], [-58.36917, -34.65263], [-58.36912, -34.65191], [-58.36886, -34.65148], [-58.36847, -34.65117], [-58.36763, -34.65074], [-58.36752, -34.65068], [-58.364, -34.64887], [-58.36362, -34.64874], [-58.36316, -34.64867], [-58.36251, -34.64862], [-58.36208, -34.64852], [-58.3618, -34.64841], [-58.36157, -34.64827], [-58.35989, -34.64678], [-58.3593, -34.6463], [-58.35878, -34.64594], [-58.35811, -34.64562], [-58.35717, -34.64525], [-58.3568, -34.64507], [-58.35655, -34.64487], [-58.35649, -34.64465], [-58.35652, -34.64419], [-58.35736, -34.64219], [-58.35758, -34.64167], [-58.35773, -34.64108], [-58.35776, -34.6405], [-58.35773, -34.64017], [-58.3576, -34.63989], [-58.35724, -34.63952], [-58.35538, -34.63784], [-58.35394, -34.63715], [-58.35351, -34.63672], [-58.35335, -34.63656], [-58.35248, -34.63569], [-58.35119, -34.63428], [-58.34908, -34.63256], [-58.34905, -34.63253], [-58.34902, -34.63249], [-58.34898, -34.63248], [-58.34877, -34.63251], [-58.34869, -34.63252], [-58.34856, -34.63249], [-58.34813, -34.63234], [-58.34808, -34.63233], [-58.34799, -34.63235], [-58.34791, -34.63235], [-58.34778, -34.6323], [-58.34773, -34.63224], [-58.34766, -34.63209], [-58.34608, -34.63165], [-58.34613, -34.63154], [-58.34674, -34.63141], [-58.34675, -34.63146], [-58.3468, -34.63151], [-58.34696, -34.63149], [-58.34703, -34.63153], [-58.34731, -34.63149], [-58.34737, -34.63145], [-58.34744, -34.63139], [-58.34753, -34.63138], [-58.34773, -34.63128], [-58.34773, -34.63121], [-58.34793, -34.63116], [-58.34797, -34.63101], [-58.34803, -34.6309], [-58.34808, -34.63078], [-58.3481, -34.63066], [-58.34811, -34.63057], [-58.34815, -34.63041], [-58.34828, -34.63033], [-58.3483, -34.63029], [-58.34826, -34.6301], [-58.34789, -34.63012], [-58.34799, -34.62993], [-58.34843, -34.62987], [-58.34846, -34.62983], [-58.34849, -34.6294], [-58.34868, -34.62935], [-58.34879, -34.62907], [-58.34878, -34.62893], [-58.34876, -34.62876], [-58.34876, -34.62867], [-58.34873, -34.62866], [-58.34803, -34.62809], [-58.34766, -34.62838], [-58.34747, -34.6282], [-58.34781, -34.62791], [-58.34746, -34.62761], [-58.3472, -34.6274], [-58.34722, -34.62739], [-58.34706, -34.62725], [-58.34536, -34.62867], [-58.34526, -34.62859], [-58.34527, -34.62857], [-58.34502, -34.62836], [-58.34501, -34.62838], [-58.34457, -34.62801], [-58.34284, -34.62944], [-58.34154, -34.62909], [-58.3414, -34.62896], [-58.34139, -34.6289], [-58.34436, -34.62647], [-58.34427, -34.62639], [-58.34349, -34.6263], [-58.34332, -34.62628], [-58.34242, -34.62617], [-58.34224, -34.62633], [-58.34211, -34.62643], [-58.34171, -34.62677], [-58.34036, -34.62788], [-58.34025, -34.62798], [-58.33973, -34.62783], [-58.33972, -34.62786], [-58.33973, -34.62787], [-58.33944, -34.62861], [-58.3394, -34.62866], [-58.33935, -34.62868], [-58.33929, -34.62867], [-58.33923, -34.62866], [-58.3392, -34.62874], [-58.33917, -34.62877], [-58.33914, -34.62879], [-58.33895, -34.62874], [-58.33879, -34.6287], [-58.33822, -34.62856], [-58.33816, -34.62872], [-58.33815, -34.62872], [-58.33693, -34.62839], [-58.33692, -34.62838], [-58.33698, -34.62822], [-58.33643, -34.62808], [-58.33625, -34.62803], [-58.33514, -34.62711], [-58.33515, -34.62644], [-58.33702, -34.62488], [-58.33766, -34.62474], [-58.33767, -34.62475], [-58.33775, -34.62483], [-58.33778, -34.62482], [-58.33778, -34.62479], [-58.33776, -34.62473], [-58.33778, -34.62473], [-58.33779, -34.62478], [-58.33799, -34.62473], [-58.33798, -34.62468], [-58.33799, -34.62467], [-58.338, -34.62467], [-58.33802, -34.62468], [-58.33803, -34.62472], [-58.33822, -34.62468], [-58.33821, -34.62463], [-58.33823, -34.62462], [-58.33843, -34.62457], [-58.34003, -34.62325], [-58.34067, -34.62303], [-58.34189, -34.62303], [-58.34202, -34.62306], [-58.3421, -34.62311], [-58.34213, -34.6231], [-58.34216, -34.62312], [-58.34217, -34.62313], [-58.34222, -34.62317], [-58.34227, -34.6232], [-58.34238, -34.62324], [-58.34238, -34.62334], [-58.34305, -34.62266], [-58.34265, -34.62238], [-58.34222, -34.62227], [-58.34201, -34.62228], [-58.34193, -34.62233], [-58.34192, -34.62243], [-58.34197, -34.62252], [-58.34205, -34.62258], [-58.34205, -34.62262], [-58.34202, -34.62269], [-58.34202, -34.62274], [-58.34194, -34.62284], [-58.34172, -34.62287], [-58.34145, -34.62281], [-58.34117, -34.62269], [-58.341, -34.62268], [-58.34042, -34.62275], [-58.34007, -34.62269], [-58.33962, -34.62261], [-58.33898, -34.62262], [-58.33813, -34.62274], [-58.33779, -34.62273], [-58.33745, -34.62264], [-58.33724, -34.62241], [-58.33698, -34.62234], [-58.33707, -34.62217], [-58.33707, -34.6221], [-58.33706, -34.62186], [-58.33714, -34.62145], [-58.33743, -34.62104], [-58.33746, -34.62061], [-58.33758, -34.61995], [-58.33786, -34.61944], [-58.33837, -34.61869], [-58.3392, -34.61853], [-58.33992, -34.61851], [-58.3402, -34.61864], [-58.34136, -34.61849], [-58.34176, -34.61848], [-58.34261, -34.61855], [-58.34338, -34.6187], [-58.34391, -34.61889], [-58.34425, -34.61909], [-58.34435, -34.61926], [-58.34427, -34.61946], [-58.34436, -34.61972], [-58.34408, -34.61999], [-58.34429, -34.6205], [-58.34431, -34.62063], [-58.34425, -34.62074], [-58.34418, -34.62082], [-58.34408, -34.62105], [-58.344, -34.62134], [-58.34388, -34.62153], [-58.34391, -34.62163], [-58.34385, -34.62173], [-58.34377, -34.62197], [-58.34366, -34.62242], [-58.34398, -34.62273], [-58.3442, -34.62251], [-58.34406, -34.62232], [-58.34401, -34.62207], [-58.34401, -34.62194], [-58.34408, -34.62174], [-58.3442, -34.6216], [-58.34432, -34.6215], [-58.34453, -34.62138], [-58.3448, -34.62133], [-58.34504, -34.62134], [-58.34528, -34.62141], [-58.34546, -34.6215], [-58.34556, -34.62158], [-58.3457, -34.62177], [-58.34576, -34.622], [-58.34566, -34.62228], [-58.34549, -34.62251], [-58.34532, -34.62263], [-58.34511, -34.62271], [-58.34477, -34.62272], [-58.34449, -34.62263], [-58.3442, -34.62289], [-58.34447, -34.62303], [-58.34482, -34.62312], [-58.34569, -34.62305], [-58.34626, -34.62242], [-58.34652, -34.62198], [-58.34646, -34.62161], [-58.34704, -34.62093], [-58.34708, -34.62067], [-58.34716, -34.61998], [-58.34654, -34.61928], [-58.34634, -34.61921], [-58.34626, -34.61934], [-58.34546, -34.61989], [-58.3452, -34.61984], [-58.34468, -34.61963], [-58.34464, -34.61958], [-58.34454, -34.61906], [-58.3446, -34.61899], [-58.34521, -34.61881], [-58.34598, -34.61886], [-58.34656, -34.6191], [-58.34725, -34.61894], [-58.34783, -34.61896], [-58.34832, -34.61904], [-58.34907, -34.61965], [-58.34958, -34.6198], [-58.35018, -34.61974], [-58.35069, -34.61956], [-58.35079, -34.61968], [-58.35089, -34.6198], [-58.35092, -34.61985], [-58.35103, -34.61979], [-58.35099, -34.61974], [-58.35089, -34.61962], [-58.35087, -34.61947], [-58.35116, -34.61939], [-58.35129, -34.61917], [-58.35133, -34.61911], [-58.35135, -34.61908], [-58.35139, -34.61901], [-58.35146, -34.61891], [-58.35141, -34.61889], [-58.3513, -34.61884], [-58.35119, -34.61876], [-58.35106, -34.61861], [-58.35081, -34.61833], [-58.35064, -34.61828], [-58.35044, -34.61823], [-58.35028, -34.61793], [-58.3504, -34.61767], [-58.34979, -34.61715], [-58.34839, -34.61695], [-58.34702, -34.61713], [-58.346, -34.61742], [-58.34589, -34.61746], [-58.34519, -34.61764], [-58.34482, -34.61772], [-58.34451, -34.61766], [-58.34341, -34.61736], [-58.34283, -34.61713], [-58.34248, -34.61706], [-58.34187, -34.61708], [-58.34139, -34.61704], [-58.34088, -34.61698], [-58.34059, -34.61682], [-58.34032, -34.61664], [-58.34008, -34.61643], [-58.33985, -34.61621], [-58.33979, -34.61604], [-58.33977, -34.61591], [-58.33975, -34.61539], [-58.3398, -34.61501], [-58.33992, -34.61416], [-58.34003, -34.6136], [-58.34015, -34.6131], [-58.34036, -34.61223], [-58.34082, -34.61071], [-58.34094, -34.61052], [-58.34119, -34.61023], [-58.3413, -34.61006], [-58.34145, -34.6099], [-58.34175, -34.60965], [-58.34283, -34.60885], [-58.34302, -34.60867], [-58.34323, -34.60852], [-58.34366, -34.6082], [-58.34399, -34.60793], [-58.34421, -34.60782], [-58.34441, -34.60775], [-58.34522, -34.60725], [-58.3456, -34.60702], [-58.34574, -34.60688], [-58.34586, -34.60668], [-58.34595, -34.60648], [-58.34609, -34.6062], [-58.34611, -34.60597], [-58.34613, -34.60571], [-58.34605, -34.60563], [-58.34607, -34.6055], [-58.34611, -34.60529], [-58.34611, -34.60508], [-58.34616, -34.60489], [-58.34626, -34.60473], [-58.34635, -34.60458], [-58.34642, -34.6042], [-58.34647, -34.60381], [-58.34653, -34.60364], [-58.3466, -34.60344], [-58.34671, -34.60326], [-58.34673, -34.60317], [-58.34673, -34.60296], [-58.34673, -34.60253], [-58.34676, -34.60239], [-58.34686, -34.60226], [-58.34693, -34.60211], [-58.34715, -34.60184], [-58.34729, -34.60169], [-58.34749, -34.60159], [-58.34772, -34.60153], [-58.34787, -34.60147], [-58.34797, -34.60135], [-58.34811, -34.60115], [-58.34826, -34.60103], [-58.34842, -34.60095], [-58.3486, -34.60087], [-58.34871, -34.60083], [-58.34885, -34.60073], [-58.34907, -34.60054], [-58.34938, -34.60031], [-58.34963, -34.60017], [-58.34978, -34.60006], [-58.34997, -34.59988], [-58.35044, -34.59946], [-58.35058, -34.59928], [-58.35074, -34.59915], [-58.35102, -34.59912], [-58.35124, -34.59902], [-58.35163, -34.59877], [-58.35218, -34.59826], [-58.3524, -34.59807], [-58.35248, -34.59797], [-58.35252, -34.5979], [-58.35258, -34.59781], [-58.35264, -34.59772], [-58.35272, -34.59766], [-58.35279, -34.59758], [-58.35283, -34.59749], [-58.35287, -34.59739], [-58.35294, -34.59728], [-58.35301, -34.59714], [-58.35307, -34.59703], [-58.35315, -34.59695], [-58.35321, -34.5969], [-58.35327, -34.59685], [-58.35338, -34.59677], [-58.35346, -34.59669], [-58.3536, -34.5966], [-58.35369, -34.59655], [-58.35383, -34.59646], [-58.35396, -34.5964], [-58.35409, -34.59631], [-58.35426, -34.59622], [-58.35439, -34.59614], [-58.35459, -34.59603], [-58.3548, -34.59591], [-58.35492, -34.59581], [-58.355, -34.59574], [-58.35507, -34.59565], [-58.35514, -34.59562], [-58.35515, -34.59556], [-58.35521, -34.59548], [-58.3553, -34.59543], [-58.35539, -34.59537], [-58.35544, -34.59531], [-58.35551, -34.59525], [-58.35561, -34.59519], [-58.35571, -34.59516], [-58.3558, -34.59516], [-58.35591, -34.59514], [-58.35605, -34.59509], [-58.35619, -34.59506], [-58.35628, -34.59505], [-58.35636, -34.59503], [-58.3565, -34.59499], [-58.35669, -34.59494], [-58.357, -34.59486], [-58.3571, -34.59483], [-58.3585, -34.59493], [-58.35865, -34.59498], [-58.35868, -34.59497], [-58.35872, -34.59494], [-58.35873, -34.59492], [-58.35876, -34.59491], [-58.35884, -34.59491], [-58.36008, -34.59499], [-58.3602, -34.59503], [-58.36031, -34.59508], [-58.36034, -34.59511], [-58.36035, -34.59515], [-58.36037, -34.59522], [-58.36036, -34.59531], [-58.36033, -34.59537], [-58.36031, -34.59542], [-58.36032, -34.59546], [-58.36033, -34.59549], [-58.36039, -34.59553], [-58.3604, -34.59554], [-58.3609, -34.59577], [-58.36092, -34.59574], [-58.36111, -34.59583], [-58.36109, -34.59586], [-58.3616, -34.59609], [-58.36199, -34.59627], [-58.36201, -34.59628], [-58.36235, -34.59644], [-58.36246, -34.59649], [-58.36297, -34.59661], [-58.36341, -34.59667], [-58.36384, -34.59546], [-58.36385, -34.59543], [-58.36388, -34.59537], [-58.36392, -34.59533], [-58.36395, -34.59531], [-58.36402, -34.5953], [-58.36405, -34.5953], [-58.36436, -34.59537], [-58.36438, -34.59541], [-58.36439, -34.59545], [-58.36437, -34.59551], [-58.36409, -34.59634], [-58.3638, -34.59718], [-58.36381, -34.5972], [-58.36398, -34.59722], [-58.36418, -34.59724], [-58.36615, -34.5974], [-58.36649, -34.59742], [-58.36786, -34.59754], [-58.36788, -34.59752], [-58.36791, -34.59751], [-58.36864, -34.59539], [-58.36908, -34.59414], [-58.36716, -34.59332], [-58.36714, -34.5933], [-58.36714, -34.59328], [-58.36715, -34.59326], [-58.36721, -34.59316], [-58.36725, -34.59317], [-58.36793, -34.59209], [-58.36789, -34.59207], [-58.3679, -34.59205], [-58.36791, -34.59203], [-58.36791, -34.592], [-58.3679, -34.59198], [-58.36788, -34.59196], [-58.36785, -34.59194], [-58.36782, -34.59193], [-58.36779, -34.59193], [-58.36776, -34.59194], [-58.36773, -34.59195], [-58.36771, -34.59197], [-58.3677, -34.59199], [-58.36766, -34.59198], [-58.36698, -34.59305], [-58.36701, -34.59307], [-58.36701, -34.59308], [-58.36694, -34.59319], [-58.36691, -34.5932], [-58.36689, -34.5932], [-58.36639, -34.59299], [-58.36637, -34.59297], [-58.36644, -34.59284], [-58.36646, -34.59285], [-58.36678, -34.59235], [-58.3673, -34.59152], [-58.36727, -34.5915], [-58.36728, -34.59148], [-58.36728, -34.59146], [-58.36728, -34.59143], [-58.36727, -34.59141], [-58.36725, -34.59139], [-58.36723, -34.59138], [-58.3672, -34.59137], [-58.36717, -34.59136], [-58.36714, -34.59137], [-58.36711, -34.59138], [-58.36708, -34.5914], [-58.36707, -34.59142], [-58.36704, -34.59141], [-58.3662, -34.59273], [-58.36623, -34.59274], [-58.36615, -34.59286], [-58.36614, -34.59286], [-58.36612, -34.59287], [-58.3661, -34.59287], [-58.36594, -34.5928], [-58.36591, -34.5928], [-58.3659, -34.59282], [-58.3648, -34.59447], [-58.36475, -34.59449], [-58.36469, -34.5945], [-58.36464, -34.59449], [-58.36443, -34.59438], [-58.36439, -34.59435], [-58.36438, -34.59432], [-58.36436, -34.59428], [-58.36437, -34.59423], [-58.36438, -34.59419], [-58.36636, -34.59117], [-58.36651, -34.59096], [-58.36664, -34.59085], [-58.36675, -34.59078], [-58.36693, -34.59071], [-58.36707, -34.59068], [-58.36727, -34.59065], [-58.36747, -34.59065], [-58.36761, -34.59058], [-58.3679, -34.59041], [-58.36791, -34.59037], [-58.36798, -34.59014], [-58.36795, -34.59008], [-58.36789, -34.59001], [-58.36519, -34.58947], [-58.35982, -34.58839], [-58.35972, -34.58835], [-58.35965, -34.58829], [-58.35961, -34.58818], [-58.35961, -34.5881], [-58.35945, -34.58809], [-58.35956, -34.5872], [-58.35957, -34.58718], [-58.35959, -34.58718], [-58.36349, -34.58749], [-58.36351, -34.58748], [-58.36352, -34.58747], [-58.36369, -34.58625], [-58.36366, -34.58622], [-58.35965, -34.58592], [-58.35986, -34.58411], [-58.35987, -34.5841], [-58.365, -34.58451], [-58.36616, -34.58354], [-58.36618, -34.58335], [-58.36142, -34.58296], [-58.36141, -34.58294], [-58.36161, -34.58115], [-58.36163, -34.58114], [-58.36898, -34.58172], [-58.37058, -34.58081], [-58.3706, -34.5808], [-58.37061, -34.58073], [-58.37062, -34.58073], [-58.37063, -34.58067], [-58.37061, -34.58067], [-58.37062, -34.5806], [-58.37061, -34.58059], [-58.37059, -34.58058], [-58.36526, -34.58015], [-58.36525, -34.58012], [-58.36529, -34.57971], [-58.3653, -34.5797], [-58.36795, -34.57819], [-58.37431, -34.57869], [-58.37604, -34.57769], [-58.37605, -34.57762], [-58.37607, -34.57762], [-58.37608, -34.57757], [-58.37606, -34.57757], [-58.37606, -34.57751], [-58.37604, -34.57751], [-58.37605, -34.57747], [-58.37073, -34.57706], [-58.37071, -34.57704], [-58.37069, -34.57701], [-58.37074, -34.5766], [-58.37254, -34.57557], [-58.37548, -34.57389], [-58.3755, -34.57389], [-58.38184, -34.57439], [-58.38359, -34.5734], [-58.3836, -34.57333], [-58.38361, -34.57333], [-58.38362, -34.57327], [-58.3836, -34.57326], [-58.38361, -34.57317], [-58.37826, -34.57275], [-58.37825, -34.57274], [-58.37824, -34.57273], [-58.37828, -34.57231], [-58.37829, -34.57229], [-58.38082, -34.57086], [-58.38079, -34.57082], [-58.38088, -34.57077], [-58.38091, -34.57081], [-58.38107, -34.57072], [-58.38108, -34.57073], [-58.38112, -34.57073], [-58.38112, -34.57064], [-58.38114, -34.57064], [-58.38116, -34.57052], [-58.38068, -34.57049], [-58.38068, -34.57045], [-58.38069, -34.57042], [-58.38072, -34.57042], [-58.38073, -34.57023], [-58.38069, -34.57014], [-58.38074, -34.56939], [-58.38088, -34.56865], [-58.38098, -34.56855], [-58.38109, -34.56848], [-58.38123, -34.56842], [-58.38146, -34.56838], [-58.38308, -34.56836], [-58.38319, -34.56837], [-58.38348, -34.56844], [-58.3836, -34.56848], [-58.3837, -34.56853], [-58.3838, -34.56869], [-58.38382, -34.56879], [-58.38397, -34.56883], [-58.38633, -34.56903], [-58.3903, -34.56935], [-58.39049, -34.56941], [-58.39061, -34.56961], [-58.39074, -34.56985], [-58.39105, -34.57007], [-58.39117, -34.57023], [-58.39124, -34.57038], [-58.39125, -34.57048], [-58.39121, -34.57059], [-58.39062, -34.57095], [-58.39061, -34.57096], [-58.38665, -34.57323], [-58.3873, -34.57403], [-58.38794, -34.57484], [-58.38814, -34.57472], [-58.38843, -34.57456], [-58.3888, -34.57435], [-58.389, -34.57423], [-58.38964, -34.57387], [-58.39, -34.57366], [-58.39018, -34.57356], [-58.39163, -34.57273], [-58.39196, -34.57254], [-58.39218, -34.57241], [-58.39296, -34.57198], [-58.39302, -34.57196], [-58.39354, -34.57103], [-58.39375, -34.57068], [-58.39416, -34.56993], [-58.39459, -34.56923], [-58.3947, -34.56917], [-58.39482, -34.56918], [-58.39492, -34.56927], [-58.39508, -34.56912], [-58.39524, -34.56894], [-58.39523, -34.56884], [-58.39525, -34.56869], [-58.39525, -34.56862], [-58.39552, -34.56823], [-58.39622, -34.56719], [-58.39646, -34.5669], [-58.39704, -34.56665], [-58.39717, -34.56661], [-58.39737, -34.56663], [-58.39751, -34.56671], [-58.39792, -34.56714], [-58.39889, -34.56809], [-58.39993, -34.56917], [-58.40007, -34.5691], [-58.40019, -34.56903], [-58.40011, -34.56898], [-58.40004, -34.56895], [-58.40003, -34.56894], [-58.40001, -34.5689], [-58.4, -34.56887], [-58.39984, -34.56872], [-58.39979, -34.56867], [-58.39974, -34.56863], [-58.39966, -34.56858], [-58.39963, -34.56856], [-58.39953, -34.56848], [-58.39943, -34.56836], [-58.39925, -34.56818], [-58.39918, -34.56809], [-58.39917, -34.56801], [-58.39916, -34.56793], [-58.39909, -34.56781], [-58.39903, -34.56775], [-58.39901, -34.56774], [-58.39893, -34.56773], [-58.39889, -34.5677], [-58.39887, -34.56766], [-58.39887, -34.56763], [-58.39885, -34.56759], [-58.39877, -34.5675], [-58.39863, -34.56733], [-58.39858, -34.56728], [-58.39831, -34.5671], [-58.39821, -34.56702], [-58.39814, -34.56695], [-58.39803, -34.56688], [-58.39796, -34.56681], [-58.39792, -34.56673], [-58.39787, -34.56667], [-58.39782, -34.56661], [-58.39774, -34.56654], [-58.39771, -34.56651], [-58.39765, -34.56638], [-58.39758, -34.56628], [-58.39749, -34.56619], [-58.39737, -34.56612], [-58.3971, -34.566], [-58.39696, -34.56587], [-58.39687, -34.56571], [-58.39682, -34.56553], [-58.39683, -34.56541], [-58.39688, -34.56529], [-58.39696, -34.56515], [-58.39713, -34.56504], [-58.39729, -34.56503], [-58.39742, -34.56497], [-58.39757, -34.56483], [-58.39782, -34.56469], [-58.39854, -34.56412], [-58.39877, -34.56392], [-58.39908, -34.56377], [-58.39923, -34.56371], [-58.39954, -34.56364], [-58.3997, -34.56366], [-58.40025, -34.56403], [-58.40031, -34.56398], [-58.4007, -34.56431], [-58.40084, -34.56422], [-58.40089, -34.56425], [-58.40091, -34.56423], [-58.40093, -34.56421], [-58.40096, -34.56419], [-58.401, -34.56418], [-58.40097, -34.56413], [-58.4011, -34.56404], [-58.40091, -34.56381], [-58.40091, -34.56379], [-58.40089, -34.56377], [-58.40096, -34.56373], [-58.40091, -34.56368], [-58.4009, -34.56365], [-58.40088, -34.56362], [-58.40087, -34.56359], [-58.40087, -34.56356], [-58.40087, -34.56353], [-58.40088, -34.56349], [-58.40091, -34.56345], [-58.40093, -34.56342], [-58.40095, -34.56341], [-58.40101, -34.56337], [-58.40106, -34.56335], [-58.4011, -34.56334], [-58.40115, -34.56334], [-58.4012, -34.56334], [-58.40124, -34.56334], [-58.40128, -34.56335], [-58.40138, -34.56338], [-58.40149, -34.56344], [-58.40154, -34.56346], [-58.40159, -34.56349], [-58.40162, -34.56352], [-58.40169, -34.56358], [-58.40177, -34.56364], [-58.40185, -34.56371], [-58.40194, -34.56377], [-58.40203, -34.56381], [-58.40212, -34.56385], [-58.40221, -34.56388], [-58.40231, -34.5639], [-58.40242, -34.56392], [-58.40253, -34.56394], [-58.40263, -34.56395], [-58.40274, -34.56395], [-58.40289, -34.56395], [-58.40303, -34.56393], [-58.40313, -34.56392], [-58.40324, -34.5639], [-58.40334, -34.56387], [-58.40344, -34.56384], [-58.40354, -34.5638], [-58.40364, -34.56376], [-58.40375, -34.56371], [-58.40386, -34.56364], [-58.40393, -34.56358], [-58.40388, -34.56355], [-58.40391, -34.5635], [-58.40441, -34.56281], [-58.40465, -34.56293], [-58.40443, -34.56321], [-58.40447, -34.56324], [-58.40479, -34.56294], [-58.40477, -34.56289], [-58.40476, -34.56284], [-58.40476, -34.56279], [-58.40477, -34.56275], [-58.4048, -34.5627], [-58.40482, -34.56267], [-58.40625, -34.56135], [-58.40656, -34.56106], [-58.40679, -34.5608], [-58.40707, -34.56051], [-58.40732, -34.56022], [-58.40771, -34.55979], [-58.40862, -34.5589], [-58.40872, -34.55877], [-58.40879, -34.55872], [-58.40886, -34.55869], [-58.40892, -34.55868], [-58.409, -34.55868], [-58.40914, -34.55855], [-58.40918, -34.55851], [-58.40922, -34.55846], [-58.40925, -34.55843], [-58.40921, -34.5584], [-58.40919, -34.55837], [-58.40918, -34.55834], [-58.40924, -34.55821], [-58.40926, -34.55814], [-58.40928, -34.55804], [-58.40929, -34.55798], [-58.4093, -34.55791], [-58.4093, -34.55782], [-58.40932, -34.55769], [-58.40934, -34.5576], [-58.40946, -34.55731], [-58.40952, -34.5572], [-58.40944, -34.55712], [-58.40948, -34.55709], [-58.40944, -34.55705], [-58.40941, -34.557], [-58.40939, -34.55695], [-58.40938, -34.5569], [-58.40938, -34.55685], [-58.40939, -34.55679], [-58.40942, -34.55675], [-58.40945, -34.5567], [-58.40949, -34.55666], [-58.40954, -34.55663], [-58.40959, -34.5566], [-58.40965, -34.55658], [-58.40972, -34.55657], [-58.40978, -34.55657], [-58.40984, -34.55658], [-58.4099, -34.55659], [-58.40996, -34.55662], [-58.41001, -34.55665], [-58.41004, -34.55667], [-58.41009, -34.55664], [-58.41018, -34.55671], [-58.41085, -34.55641], [-58.41097, -34.55635], [-58.41096, -34.55633], [-58.41094, -34.55629], [-58.41094, -34.55625], [-58.41094, -34.55621], [-58.41099, -34.55622], [-58.41103, -34.55625], [-58.41107, -34.55628], [-58.41108, -34.55629], [-58.4117, -34.55599], [-58.41248, -34.55556], [-58.41337, -34.55516], [-58.41405, -34.55493], [-58.41404, -34.55492], [-58.41404, -34.55487], [-58.41404, -34.55483], [-58.41405, -34.55478], [-58.4141, -34.55481], [-58.41414, -34.55484], [-58.41417, -34.55487], [-58.41418, -34.55489], [-58.41501, -34.55462], [-58.41594, -34.55436], [-58.41594, -34.55435], [-58.41593, -34.55431], [-58.41594, -34.55426], [-58.41596, -34.55422], [-58.416, -34.55425], [-58.41604, -34.55428], [-58.41607, -34.55432], [-58.41607, -34.55433], [-58.41672, -34.55418], [-58.41729, -34.55405], [-58.41793, -34.55395], [-58.41866, -34.55381], [-58.41931, -34.55372], [-58.42, -34.55365], [-58.42039, -34.55358], [-58.42043, -34.5536], [-58.42065, -34.55355], [-58.42236, -34.55313], [-58.42232, -34.55299], [-58.42285, -34.55286], [-58.4229, -34.553], [-58.4238, -34.55278], [-58.42453, -34.55256], [-58.42449, -34.55247], [-58.42458, -34.55244], [-58.42462, -34.55253], [-58.42569, -34.55216], [-58.42572, -34.55215], [-58.42574, -34.55214], [-58.42565, -34.55197], [-58.42603, -34.55183], [-58.42612, -34.552], [-58.42652, -34.55183], [-58.42646, -34.55174], [-58.4265, -34.55172], [-58.42655, -34.5517], [-58.42623, -34.55109], [-58.42603, -34.55066], [-58.42604, -34.55061], [-58.42556, -34.54965], [-58.42558, -34.54959], [-58.42538, -34.54914], [-58.42546, -34.54908], [-58.42555, -34.54885], [-58.42574, -34.54871], [-58.42577, -34.54873], [-58.42581, -34.54879], [-58.42584, -34.54877], [-58.42596, -34.54872], [-58.42595, -34.5487], [-58.42598, -34.54869], [-58.42594, -34.54861], [-58.42609, -34.54853], [-58.42608, -34.5485], [-58.42643, -34.54829], [-58.42683, -34.54813], [-58.42707, -34.54805], [-58.4274, -34.54803], [-58.42774, -34.54806], [-58.4281, -34.54815], [-58.42842, -34.54825], [-58.42876, -34.5484], [-58.42923, -34.54857], [-58.42963, -34.5487], [-58.42969, -34.54852], [-58.42984, -34.54827], [-58.43005, -34.54805], [-58.42994, -34.54795], [-58.42985, -34.54784], [-58.42977, -34.54771], [-58.42972, -34.54757], [-58.4297, -34.54744], [-58.42971, -34.54734], [-58.42973, -34.54727], [-58.42977, -34.54715], [-58.42981, -34.54707], [-58.42989, -34.54694], [-58.43004, -34.54679], [-58.43019, -34.54664], [-58.43027, -34.54653], [-58.43057, -34.54615], [-58.43075, -34.54583], [-58.43085, -34.54561], [-58.43095, -34.54538], [-58.43117, -34.545], [-58.43131, -34.54481], [-58.43146, -34.54462], [-58.4316, -34.54446], [-58.43175, -34.54431], [-58.43201, -34.54409], [-58.43235, -34.54385], [-58.43267, -34.54365], [-58.43297, -34.54347], [-58.43323, -34.54334], [-58.43355, -34.54318], [-58.43391, -34.54303], [-58.43403, -34.54298], [-58.43407, -34.54296], [-58.43418, -34.54292], [-58.4344, -34.54277], [-58.43456, -34.54263], [-58.43475, -34.54242], [-58.43484, -34.54219], [-58.43489, -34.542], [-58.43491, -34.54191], [-58.43513, -34.54149], [-58.43536, -34.54112], [-58.43561, -34.54085], [-58.43595, -34.54057], [-58.43624, -34.54039], [-58.43649, -34.54025], [-58.4367, -34.54016], [-58.43695, -34.54009], [-58.43711, -34.54005], [-58.4373, -34.54002], [-58.43734, -34.54001], [-58.4374, -34.54], [-58.43752, -34.53999], [-58.43771, -34.53997], [-58.43804, -34.53994], [-58.4384, -34.53995], [-58.4387, -34.54], [-58.43891, -34.54004], [-58.43909, -34.54009], [-58.43923, -34.54013], [-58.43932, -34.5401], [-58.43937, -34.54009], [-58.43941, -34.54008], [-58.43951, -34.54006], [-58.43957, -34.54003], [-58.43963, -34.54001], [-58.43971, -34.53998], [-58.43982, -34.5399], [-58.43992, -34.53986], [-58.44008, -34.53976], [-58.44021, -34.53969], [-58.44021, -34.53985], [-58.44031, -34.53985], [-58.44031, -34.53988], [-58.44037, -34.53988], [-58.44037, -34.53991], [-58.4408, -34.5399], [-58.4408, -34.53986], [-58.44087, -34.53986], [-58.44083, -34.53915], [-58.44109, -34.53915], [-58.44107, -34.53859], [-58.44109, -34.53859], [-58.44112, -34.53859], [-58.44133, -34.53858], [-58.4415, -34.53786], [-58.44152, -34.53786], [-58.44156, -34.53787], [-58.44176, -34.53791], [-58.44215, -34.53726], [-58.44219, -34.53727], [-58.44229, -34.5373], [-58.44282, -34.53676], [-58.44362, -34.5363], [-58.44364, -34.53633], [-58.44368, -34.53637], [-58.44396, -34.53624], [-58.44411, -34.5362], [-58.44505, -34.53604], [-58.44541, -34.53595], [-58.44575, -34.53593], [-58.44594, -34.53594], [-58.44611, -34.53593], [-58.44624, -34.53593], [-58.44636, -34.53596], [-58.44653, -34.53601], [-58.44667, -34.53609], [-58.44688, -34.53614], [-58.4474, -34.53638], [-58.44769, -34.53652], [-58.44808, -34.53681], [-58.44813, -34.53692], [-58.44813, -34.53697], [-58.44798, -34.53701], [-58.44789, -34.53707], [-58.44796, -34.53716], [-58.44856, -34.53741], [-58.44868, -34.53735], [-58.44869, -34.53725], [-58.44932, -34.53646], [-58.44938, -34.53634], [-58.44937, -34.53624], [-58.44929, -34.53615], [-58.44884, -34.53587], [-58.44878, -34.53579], [-58.44877, -34.5357], [-58.44889, -34.53558], [-58.44894, -34.53555], [-58.44904, -34.53554], [-58.4491, -34.53557], [-58.44928, -34.53568], [-58.44936, -34.5357], [-58.44945, -34.53575], [-58.4495, -34.53583], [-58.44984, -34.53604], [-58.45002, -34.53608], [-58.45, -34.53632], [-58.44988, -34.53737], [-58.44995, -34.53743], [-58.45009, -34.53754], [-58.45038, -34.53776], [-58.45066, -34.53794], [-58.45128, -34.53834], [-58.45143, -34.53849], [-58.45168, -34.53874], [-58.45219, -34.53965], [-58.45278, -34.53944], [-58.45285, -34.53942], [-58.45319, -34.53927], [-58.45323, -34.53925], [-58.45356, -34.5391], [-58.45382, -34.53899], [-58.45426, -34.53871], [-58.45442, -34.53845], [-58.45448, -34.53836], [-58.45462, -34.53813], [-58.45473, -34.53781], [-58.45474, -34.53774], [-58.45477, -34.53774], [-58.45484, -34.53754], [-58.45486, -34.53751], [-58.45483, -34.53745], [-58.45478, -34.53732], [-58.45462, -34.53707], [-58.45454, -34.537], [-58.45445, -34.53692], [-58.4542, -34.53671], [-58.45389, -34.53644], [-58.45356, -34.53617], [-58.45337, -34.53601], [-58.45301, -34.5357], [-58.45067, -34.53558], [-58.45036, -34.53557], [-58.45005, -34.53528], [-58.45003, -34.53481], [-58.45012, -34.53437], [-58.45053, -34.53342], [-58.45069, -34.53302], [-58.45077, -34.5325], [-58.45089, -34.53206], [-58.45118, -34.53188], [-58.45163, -34.53171], [-58.45169, -34.53171], [-58.45177, -34.53174], [-58.45198, -34.53157], [-58.45216, -34.5313], [-58.45173, -34.53062], [-58.45169, -34.53049], [-58.4517, -34.53034], [-58.45174, -34.53023], [-58.45181, -34.53013], [-58.45191, -34.53002], [-58.45205, -34.52994], [-58.45241, -34.52983], [-58.45402, -34.52932], [-58.45418, -34.52913], [-58.455, -34.52813], [-58.45548, -34.52755], [-58.45555, -34.52747], [-58.45562, -34.52742], [-58.45649, -34.52688], [-58.45664, -34.52679], [-58.45689, -34.52668], [-58.45709, -34.52661], [-58.45739, -34.52656], [-58.45771, -34.52655], [-58.45804, -34.5266], [-58.45825, -34.52667], [-58.45843, -34.52674], [-58.4586, -34.52683], [-58.45876, -34.5269], [-58.45881, -34.52688], [-58.45886, -34.52691], [-58.45892, -34.52691], [-58.45898, -34.52696], [-58.45916, -34.52701], [-58.45921, -34.52711], [-58.45933, -34.52716], [-58.45944, -34.52727], [-58.45948, -34.52732], [-58.45951, -34.5274], [-58.45952, -34.52778], [-58.45967, -34.52796], [-58.45981, -34.52808], [-58.46013, -34.52842], [-58.46027, -34.52861], [-58.46046, -34.52887], [-58.46068, -34.52919], [-58.46075, -34.52935], [-58.46086, -34.5295], [-58.46101, -34.52962], [-58.46106, -34.52972], [-58.46113, -34.52981], [-58.46118, -34.52995], [-58.46125, -34.53003], [-58.46127, -34.53014], [-58.46125, -34.53034], [-58.46131, -34.53052], [-58.46126, -34.53073], [-58.46129, -34.53095], [-58.46135, -34.53104], [-58.4614, -34.53114], [-58.46146, -34.53118], [-58.4615, -34.53122], [-58.46152, -34.53127], [-58.4615, -34.53132], [-58.46168, -34.53146], [-58.46302, -34.5326], [-58.46381, -34.53325], [-58.46461, -34.53364], [-58.46481, -34.53372], [-58.46527, -34.53393], [-58.46583, -34.53423], [-58.46618, -34.53438], [-58.46693, -34.53469], [-58.46738, -34.5348], [-58.46747, -34.53483], [-58.4676, -34.53488], [-58.46775, -34.53495], [-58.46787, -34.53502], [-58.46803, -34.53515], [-58.46825, -34.5353], [-58.46836, -34.53535], [-58.46846, -34.53539], [-58.4685, -34.53541], [-58.46858, -34.53544], [-58.46869, -34.53549], [-58.46972, -34.53593], [-58.47023, -34.53615], [-58.47038, -34.53622], [-58.47083, -34.53642], [-58.47167, -34.53671], [-58.47183, -34.53676], [-58.47308, -34.53715], [-58.47335, -34.53724], [-58.47352, -34.5373], [-58.47427, -34.53756], [-58.47491, -34.53781], [-58.47531, -34.53799], [-58.47589, -34.53822], [-58.4761, -34.5383], [-58.47618, -34.53834], [-58.47625, -34.53837], [-58.47646, -34.53847], [-58.47647, -34.53848], [-58.47672, -34.53859], [-58.47703, -34.53874], [-58.47719, -34.53881], [-58.47734, -34.53888], [-58.47805, -34.53925], [-58.47873, -34.5396], [-58.47995, -34.5402], [-58.4801, -34.54028], [-58.48018, -34.54032], [-58.48033, -34.5404], [-58.48036, -34.54041], [-58.48058, -34.54052], [-58.48068, -34.54057], [-58.48075, -34.54061], [-58.48082, -34.54065], [-58.48086, -34.54067], [-58.48119, -34.54083], [-58.48135, -34.54091], [-58.4815, -34.54097], [-58.48298, -34.54165], [-58.48371, -34.54196], [-58.48434, -34.54224], [-58.48443, -34.54228], [-58.48515, -34.54258], [-58.48589, -34.54287], [-58.48625, -34.54301], [-58.48635, -34.54305], [-58.48643, -34.54309], [-58.48654, -34.54313], [-58.48669, -34.54319], [-58.4868, -34.54324], [-58.48705, -34.54334], [-58.48717, -34.54338], [-58.48753, -34.54352], [-58.48828, -34.54382], [-58.489, -34.54412], [-58.48946, -34.5443], [-58.48972, -34.54442], [-58.49045, -34.54475], [-58.49104, -34.54502], [-58.49117, -34.54508], [-58.49155, -34.54526], [-58.49174, -34.54535], [-58.49188, -34.54542], [-58.49251, -34.54572], [-58.49259, -34.54576], [-58.49407, -34.54644], [-58.49569, -34.54718], [-58.49632, -34.54747], [-58.49687, -34.54775], [-58.49756, -34.54809], [-58.49838, -34.54847], [-58.49917, -34.54884], [-58.50001, -34.54926], [-58.50037, -34.54942], [-58.50041, -34.54944], [-58.50047, -34.54946], [-58.50053, -34.54947], [-58.50064, -34.54961], [-58.50078, -34.54977], [-58.50084, -34.5499], [-58.50115, -34.5505], [-58.50122, -34.55063], [-58.50163, -34.55143], [-58.50188, -34.55193], [-58.50191, -34.55201], [-58.50193, -34.55208], [-58.50196, -34.55226], [-58.50203, -34.55267], [-58.50206, -34.5528], [-58.5021, -34.5529], [-58.50227, -34.55329], [-58.50276, -34.55438], [-58.50294, -34.55475], [-58.50295, -34.55478], [-58.50302, -34.55492], [-58.50323, -34.55537], [-58.50331, -34.55551], [-58.50348, -34.5559], [-58.50379, -34.55654], [-58.50386, -34.55669], [-58.50402, -34.55706], [-58.50407, -34.55718], [-58.5041, -34.55725], [-58.50418, -34.55741], [-58.50423, -34.55752], [-58.50448, -34.55799], [-58.50472, -34.55838], [-58.50486, -34.55865], [-58.505, -34.55895], [-58.50508, -34.55911], [-58.50531, -34.5596], [-58.50573, -34.5605], [-58.50577, -34.56062], [-58.50593, -34.56106], [-58.50594, -34.5611], [-58.506, -34.56125], [-58.50604, -34.56135], [-58.50605, -34.56136], [-58.50612, -34.56151], [-58.50644, -34.56221], [-58.50661, -34.56256], [-58.50666, -34.56267], [-58.50702, -34.56344], [-58.50732, -34.56407], [-58.50796, -34.56545], [-58.50834, -34.56626], [-58.50856, -34.56674], [-58.50871, -34.56703], [-58.50924, -34.568], [-58.50934, -34.56818], [-58.50954, -34.56855], [-58.50984, -34.5691], [-58.50985, -34.56911], [-58.50985, -34.56913], [-58.50992, -34.56925], [-58.51, -34.56942], [-58.51006, -34.56955], [-58.51018, -34.56982], [-58.51026, -34.57], [-58.51041, -34.57032], [-58.51061, -34.57077], [-58.51073, -34.57103], [-58.51077, -34.57113], [-58.511, -34.57162], [-58.51102, -34.57166], [-58.51123, -34.5721], [-58.51137, -34.57241], [-58.51148, -34.57264], [-58.51156, -34.57281], [-58.51175, -34.57321], [-58.5118, -34.57333], [-58.51181, -34.57335], [-58.51184, -34.57341], [-58.51206, -34.57382], [-58.51225, -34.57422], [-58.51266, -34.57508], [-58.51282, -34.57544], [-58.51292, -34.57566], [-58.51297, -34.57577], [-58.51311, -34.57605], [-58.51312, -34.57608], [-58.51315, -34.57614], [-58.51319, -34.57623], [-58.51335, -34.57657], [-58.5136, -34.57711], [-58.51365, -34.57723], [-58.5137, -34.57735], [-58.51386, -34.5778], [-58.51397, -34.57813], [-58.51402, -34.57826], [-58.51403, -34.57828], [-58.51408, -34.57838], [-58.51413, -34.57851], [-58.51415, -34.57856], [-58.51424, -34.57874], [-58.51433, -34.57895], [-58.51442, -34.57916], [-58.51448, -34.57941], [-58.51451, -34.5795], [-58.51465, -34.57996], [-58.51475, -34.58028], [-58.5148, -34.58045], [-58.51486, -34.58062], [-58.51515, -34.58128], [-58.51517, -34.58131], [-58.51518, -34.58135], [-58.5153, -34.58159], [-58.51537, -34.58174], [-58.51546, -34.58189], [-58.51562, -34.58216], [-58.51578, -34.58242], [-58.51601, -34.58278], [-58.51622, -34.58309], [-58.51678, -34.58428], [-58.51681, -34.58434], [-58.51683, -34.58437], [-58.51689, -34.58452], [-58.51714, -34.58504], [-58.51728, -34.58533], [-58.51753, -34.58582], [-58.51754, -34.58585], [-58.51761, -34.586], [-58.51849, -34.58789], [-58.51877, -34.58847], [-58.51884, -34.58866], [-58.51901, -34.58902], [-58.51904, -34.58908], [-58.51906, -34.58912], [-58.5191, -34.5892], [-58.51915, -34.58932], [-58.51921, -34.58943], [-58.51926, -34.58952], [-58.51979, -34.59066], [-58.5199, -34.59089], [-58.52027, -34.59168], [-58.52037, -34.59187], [-58.5205, -34.59218], [-58.52052, -34.59221], [-58.52096, -34.59315], [-58.52102, -34.59329], [-58.52134, -34.59395], [-58.52151, -34.59435], [-58.52157, -34.59447], [-58.52163, -34.59459], [-58.52164, -34.59463], [-58.52169, -34.59473], [-58.52174, -34.59482], [-58.52176, -34.59489], [-58.52198, -34.59585], [-58.52205, -34.59609], [-58.52222, -34.59665], [-58.52257, -34.59757], [-58.5226, -34.59765], [-58.52278, -34.59813], [-58.52284, -34.59826], [-58.52291, -34.59837], [-58.52296, -34.59845], [-58.52303, -34.59854], [-58.52314, -34.59865], [-58.52326, -34.59876], [-58.52337, -34.59888], [-58.52382, -34.59964], [-58.52385, -34.5997], [-58.52391, -34.59976], [-58.52405, -34.59989], [-58.52413, -34.59996], [-58.52417, -34.6], [-58.52443, -34.60053], [-58.52456, -34.60083], [-58.52465, -34.60103], [-58.5248, -34.60138], [-58.52487, -34.60153], [-58.52509, -34.60195], [-58.52521, -34.60223], [-58.52542, -34.60268], [-58.52546, -34.60277], [-58.52554, -34.60294], [-58.52555, -34.60297], [-58.52556, -34.60298], [-58.52558, -34.60303], [-58.52559, -34.60305], [-58.52578, -34.60343], [-58.52594, -34.60378], [-58.52619, -34.6043], [-58.52625, -34.60442], [-58.52632, -34.60455], [-58.52634, -34.60459], [-58.52637, -34.60464], [-58.52652, -34.605], [-58.52657, -34.60516], [-58.52661, -34.60523], [-58.52672, -34.60546], [-58.52675, -34.60554], [-58.52679, -34.60562], [-58.52716, -34.60642], [-58.52719, -34.60647], [-58.52721, -34.60651], [-58.52749, -34.60712], [-58.52808, -34.60833], [-58.5282, -34.6086], [-58.52875, -34.6098], [-58.5291, -34.61051], [-58.52915, -34.61067], [-58.52919, -34.61075], [-58.5293, -34.61097], [-58.52939, -34.61114], [-58.52948, -34.61132], [-58.52978, -34.61191], [-58.52986, -34.61208], [-58.53034, -34.61312], [-58.53038, -34.61323], [-58.53062, -34.61374], [-58.53082, -34.6142], [-58.53096, -34.61448], [-58.53104, -34.61467], [-58.53139, -34.6154], [-58.53142, -34.61548], [-58.53144, -34.61555], [-58.53145, -34.61561], [-58.53143, -34.61601], [-58.53138, -34.61687], [-58.53135, -34.61711], [-58.53135, -34.61719], [-58.53132, -34.61741], [-58.5313, -34.61776], [-58.53129, -34.6178], [-58.53128, -34.61799], [-58.53127, -34.61819], [-58.53125, -34.61846], [-58.53124, -34.61862], [-58.53122, -34.61891], [-58.53121, -34.61903], [-58.5312, -34.61921], [-58.5312, -34.61935], [-58.53119, -34.61943], [-58.53118, -34.62008], [-58.53115, -34.62078], [-58.53111, -34.62128], [-58.53108, -34.6218], [-58.53106, -34.62213], [-58.53105, -34.62235], [-58.53104, -34.62258], [-58.53102, -34.62292], [-58.53101, -34.62314], [-58.53095, -34.62397], [-58.53094, -34.62414], [-58.53094, -34.62424], [-58.53092, -34.62442], [-58.53086, -34.62495], [-58.53085, -34.62523], [-58.53084, -34.62533], [-58.53083, -34.62553], [-58.53083, -34.6256], [-58.53083, -34.62566], [-58.53076, -34.62702], [-58.53075, -34.62725], [-58.53074, -34.62748], [-58.53072, -34.62775], [-58.53071, -34.62799], [-58.53069, -34.62834], [-58.53067, -34.6285], [-58.53063, -34.62912], [-58.53063, -34.62916], [-58.53061, -34.62953], [-58.53059, -34.62999], [-58.53057, -34.63026], [-58.53055, -34.63051], [-58.53054, -34.63076], [-58.53049, -34.63151], [-58.53048, -34.63165], [-58.53041, -34.63256], [-58.53041, -34.63276], [-58.53041, -34.63278], [-58.5304, -34.63299], [-58.5304, -34.63304], [-58.5303, -34.63478], [-58.53019, -34.63652], [-58.53011, -34.63751], [-58.5301, -34.63773], [-58.5301, -34.63785], [-58.53009, -34.63796], [-58.53009, -34.63815], [-58.53009, -34.6382], [-58.53008, -34.63831], [-58.53007, -34.63843], [-58.53005, -34.63892], [-58.53004, -34.639], [-58.53, -34.63962], [-58.52998, -34.63988], [-58.52996, -34.64017], [-58.52995, -34.64025], [-58.52995, -34.64033], [-58.52994, -34.64047], [-58.52994, -34.64056], [-58.52986, -34.64178], [-58.52985, -34.64193], [-58.52985, -34.64212], [-58.52983, -34.64254], [-58.5298, -34.64303], [-58.52978, -34.64344], [-58.52977, -34.64358], [-58.52976, -34.64391], [-58.52976, -34.64397], [-58.52974, -34.64413], [-58.52971, -34.64482], [-58.52969, -34.64519], [-58.52965, -34.64574], [-58.52963, -34.64618], [-58.52962, -34.64635], [-58.52961, -34.6465], [-58.52959, -34.64684], [-58.52958, -34.64696], [-58.52953, -34.64789], [-58.52951, -34.64816], [-58.5295, -34.64827], [-58.5295, -34.64838], [-58.52948, -34.64856], [-58.52943, -34.6494], [-58.5294, -34.64984], [-58.52939, -34.64997], [-58.52938, -34.65016], [-58.52937, -34.65037], [-58.52937, -34.65079], [-58.52932, -34.65155], [-58.52927, -34.65237], [-58.5292, -34.65318], [-58.52918, -34.65373], [-58.52917, -34.65379], [-58.52916, -34.6541], [-58.52911, -34.65449], [-58.52897, -34.65459], [-58.52893, -34.65462], [-58.52873, -34.65477], [-58.52849, -34.65495], [-58.52839, -34.65503], [-58.52723, -34.65585], [-58.52655, -34.65633], [-58.5265, -34.65636], [-58.52606, -34.65668], [-58.52579, -34.65688], [-58.52519, -34.65733], [-58.52468, -34.65772], [-58.52388, -34.65833], [-58.52371, -34.65845], [-58.52269, -34.65922], [-58.5218, -34.6599], [-58.52168, -34.66], [-58.52164, -34.66003], [-58.52077, -34.6607], [-58.52069, -34.66076], [-58.51982, -34.66142], [-58.51891, -34.66212], [-58.51887, -34.66215], [-58.51846, -34.66246], [-58.51838, -34.66252], [-58.51827, -34.6626], [-58.51765, -34.66307], [-58.51719, -34.66342], [-58.51673, -34.66376], [-58.51582, -34.66446], [-58.51535, -34.66479], [-58.51519, -34.66492], [-58.515, -34.66506], [-58.51489, -34.66515], [-58.51397, -34.66585], [-58.51351, -34.66621], [-58.51324, -34.66641], [-58.51304, -34.66655], [-58.51217, -34.66722], [-58.5121, -34.66727], [-58.51127, -34.66792], [-58.51043, -34.66856], [-58.50961, -34.66919], [-58.50915, -34.66953], [-58.50896, -34.66967], [-58.50876, -34.66979], [-58.50826, -34.67019], [-58.50784, -34.67052], [-58.50691, -34.67121], [-58.50651, -34.67152], [-58.50609, -34.67184], [-58.50587, -34.67201], [-58.50545, -34.67233], [-58.50503, -34.67265], [-58.50491, -34.67273], [-58.50488, -34.67276], [-58.50485, -34.67278], [-58.50408, -34.67337], [-58.50344, -34.67384], [-58.50304, -34.67413], [-58.50283, -34.6743], [-58.5027, -34.6744], [-58.50257, -34.67449], [-58.50248, -34.67456], [-58.50218, -34.67481], [-58.50024, -34.67636], [-58.4992, -34.67714], [-58.4991, -34.67722], [-58.49896, -34.67732], [-58.49883, -34.67742], [-58.49861, -34.67758], [-58.49813, -34.67795], [-58.49712, -34.67872], [-58.497, -34.67881], [-58.49687, -34.67891], [-58.49617, -34.67944], [-58.49536, -34.68004], [-58.49477, -34.68049], [-58.49457, -34.68065], [-58.49421, -34.68092], [-58.49419, -34.68093], [-58.49403, -34.68106], [-58.49387, -34.68119], [-58.49375, -34.68127], [-58.49268, -34.68208], [-58.49224, -34.68239], [-58.49186, -34.68269], [-58.49184, -34.68271], [-58.49163, -34.68287], [-58.49105, -34.68331], [-58.49098, -34.68335], [-58.4907, -34.68351], [-58.49059, -34.68357], [-58.49054, -34.68361], [-58.4905, -34.68364], [-58.49049, -34.68365], [-58.49012, -34.68393], [-58.49, -34.68402], [-58.48983, -34.68414], [-58.48933, -34.68451], [-58.48917, -34.68463], [-58.48878, -34.68492], [-58.4856, -34.68725]]], [[[-58.36945, -34.57123], [-58.36916, -34.57121], [-58.36206, -34.57065], [-58.36213, -34.57044], [-58.36234, -34.57018], [-58.36265, -34.56999], [-58.36322, -34.56995], [-58.36397, -34.56988], [-58.36472, -34.56995], [-58.36525, -34.56995], [-58.36602, -34.57004], [-58.36653, -34.5701], [-58.36682, -34.57008], [-58.36747, -34.57015], [-58.36807, -34.57012], [-58.36843, -34.57016], [-58.36862, -34.57013], [-58.36885, -34.57011], [-58.36962, -34.57027], [-58.36982, -34.5703], [-58.37002, -34.57026], [-58.37021, -34.57005], [-58.37027, -34.56975], [-58.3703, -34.56946], [-58.37045, -34.5691], [-58.37062, -34.56873], [-58.37069, -34.56851], [-58.37067, -34.56843], [-58.37063, -34.56837], [-58.37047, -34.56833], [-58.37038, -34.56831], [-58.3703, -34.5683], [-58.36997, -34.56815], [-58.36985, -34.56811], [-58.36965, -34.5681], [-58.36938, -34.56815], [-58.36913, -34.56811], [-58.36891, -34.56801], [-58.36873, -34.56793], [-58.36855, -34.5678], [-58.36838, -34.56764], [-58.36834, -34.56761], [-58.36828, -34.5676], [-58.36824, -34.56758], [-58.3682, -34.56747], [-58.36812, -34.56731], [-58.36811, -34.56728], [-58.36811, -34.56726], [-58.36812, -34.56723], [-58.36813, -34.56721], [-58.36816, -34.56719], [-58.36819, -34.56719], [-58.36822, -34.56718], [-58.38013, -34.56822], [-58.38025, -34.56827], [-58.38029, -34.5683], [-58.38035, -34.56837], [-58.38041, -34.56849], [-58.38038, -34.57013], [-58.38032, -34.57038], [-58.3804, -34.57039], [-58.38039, -34.57043], [-58.38038, -34.57046], [-58.37905, -34.57036], [-58.37891, -34.57038], [-58.37877, -34.57043], [-58.37707, -34.57142], [-58.37639, -34.57182], [-58.37581, -34.57216], [-58.37484, -34.57281], [-58.37124, -34.57486], [-58.37108, -34.5749], [-58.37116, -34.57479], [-58.37355, -34.57342], [-58.37432, -34.57296], [-58.37594, -34.57197], [-58.37628, -34.5718], [-58.36945, -34.57123]]]]}}